{"fetched_at":"2026-07-09T18:17:24.066Z","source":"https://celestrak.org/NORAD/elements/gp.php?NAME=SPACEMOBILE&FORMAT=JSON","constellation":"ast-spacemobile","records":[{"OBJECT_NAME":"SPACEMOBILE-003","OBJECT_ID":"2024-163A","EPOCH":"2026-07-08T10:39:36.490176","CLASSIFICATION_TYPE":"U","MEAN_MOTION":15.20786252,"ECCENTRICITY":0.00055128,"INCLINATION":52.9689,"RA_OF_ASC_NODE":211.687,"ARG_OF_PERICENTER":175.5813,"MEAN_ANOMALY":184.5231,"EPHEMERIS_TYPE":0,"NORAD_CAT_ID":61045,"ELEMENT_SET_NO":999,"REV_AT_EPOCH":10100,"BSTAR":0.000044099421,"MEAN_MOTION_DOT":0.00000657,"MEAN_MOTION_DDOT":0},{"OBJECT_NAME":"SPACEMOBILE-005","OBJECT_ID":"2024-163B","EPOCH":"2026-07-08T13:25:02.853984","CLASSIFICATION_TYPE":"U","MEAN_MOTION":15.20764273,"ECCENTRICITY":0.00089243,"INCLINATION":52.9798,"RA_OF_ASC_NODE":211.1011,"ARG_OF_PERICENTER":177.1519,"MEAN_ANOMALY":182.9528,"EPHEMERIS_TYPE":0,"NORAD_CAT_ID":61046,"ELEMENT_SET_NO":999,"REV_AT_EPOCH":10101,"BSTAR":0.00042521976,"MEAN_MOTION_DOT":0.00009176,"MEAN_MOTION_DDOT":0},{"OBJECT_NAME":"SPACEMOBILE-001","OBJECT_ID":"2024-163C","EPOCH":"2026-07-08T11:48:14.698656","CLASSIFICATION_TYPE":"U","MEAN_MOTION":15.20812105,"ECCENTRICITY":0.00075215,"INCLINATION":52.9747,"RA_OF_ASC_NODE":211.126,"ARG_OF_PERICENTER":173.6655,"MEAN_ANOMALY":186.4436,"EPHEMERIS_TYPE":0,"NORAD_CAT_ID":61047,"ELEMENT_SET_NO":999,"REV_AT_EPOCH":10100,"BSTAR":0.00003983529,"MEAN_MOTION_DOT":0.00000562,"MEAN_MOTION_DDOT":0},{"OBJECT_NAME":"SPACEMOBILE-002","OBJECT_ID":"2024-163D","EPOCH":"2026-07-08T11:25:13.505664","CLASSIFICATION_TYPE":"U","MEAN_MOTION":15.20856992,"ECCENTRICITY":0.00067298,"INCLINATION":52.9765,"RA_OF_ASC_NODE":211.2391,"ARG_OF_PERICENTER":173.3276,"MEAN_ANOMALY":186.7809,"EPHEMERIS_TYPE":0,"NORAD_CAT_ID":61048,"ELEMENT_SET_NO":999,"REV_AT_EPOCH":10100,"BSTAR":0.00020198264,"MEAN_MOTION_DOT":0.00004194,"MEAN_MOTION_DDOT":0},{"OBJECT_NAME":"SPACEMOBILE-004","OBJECT_ID":"2024-163E","EPOCH":"2026-07-06T11:41:01.713696","CLASSIFICATION_TYPE":"U","MEAN_MOTION":15.20801145,"ECCENTRICITY":0.0007073,"INCLINATION":52.9667,"RA_OF_ASC_NODE":220.1743,"ARG_OF_PERICENTER":196.8401,"MEAN_ANOMALY":163.236,"EPHEMERIS_TYPE":0,"NORAD_CAT_ID":61049,"ELEMENT_SET_NO":999,"REV_AT_EPOCH":10070,"BSTAR":0.00051660541,"MEAN_MOTION_DOT":0.00011231,"MEAN_MOTION_DDOT":0},{"OBJECT_NAME":"SPACEMOBILE-001 DEB","OBJECT_ID":"2024-163F","EPOCH":"2026-07-08T23:52:58.666080","CLASSIFICATION_TYPE":"U","MEAN_MOTION":15.35307324,"ECCENTRICITY":0.00059546,"INCLINATION":52.9917,"RA_OF_ASC_NODE":176.6619,"ARG_OF_PERICENTER":229.0504,"MEAN_ANOMALY":130.9982,"EPHEMERIS_TYPE":0,"NORAD_CAT_ID":62369,"ELEMENT_SET_NO":999,"REV_AT_EPOCH":8985,"BSTAR":0.00017459345,"MEAN_MOTION_DOT":0.00005697,"MEAN_MOTION_DDOT":0},{"OBJECT_NAME":"SPACEMOBILE-002 DEB","OBJECT_ID":"2024-163G","EPOCH":"2026-07-08T10:09:25.534080","CLASSIFICATION_TYPE":"U","MEAN_MOTION":15.43630312,"ECCENTRICITY":0.00044738,"INCLINATION":52.9406,"RA_OF_ASC_NODE":163.9171,"ARG_OF_PERICENTER":260.5662,"MEAN_ANOMALY":99.4836,"EPHEMERIS_TYPE":0,"NORAD_CAT_ID":62370,"ELEMENT_SET_NO":999,"REV_AT_EPOCH":10164,"BSTAR":0.00031715309,"MEAN_MOTION_DOT":0.00014113,"MEAN_MOTION_DDOT":0},{"OBJECT_NAME":"SPACEMOBILE-003 DEB","OBJECT_ID":"2024-163H","EPOCH":"2026-07-08T15:24:03.686112","CLASSIFICATION_TYPE":"U","MEAN_MOTION":15.41385961,"ECCENTRICITY":0.00056757,"INCLINATION":52.9682,"RA_OF_ASC_NODE":169.6526,"ARG_OF_PERICENTER":212.5674,"MEAN_ANOMALY":147.498,"EPHEMERIS_TYPE":0,"NORAD_CAT_ID":62371,"ELEMENT_SET_NO":999,"REV_AT_EPOCH":9519,"BSTAR":0.00034382737,"MEAN_MOTION_DOT":0.00014206,"MEAN_MOTION_DDOT":0},{"OBJECT_NAME":"SPACEMOBILE-004 DEB","OBJECT_ID":"2024-163J","EPOCH":"2026-07-08T15:46:02.531136","CLASSIFICATION_TYPE":"U","MEAN_MOTION":15.40634625,"ECCENTRICITY":0.00028544,"INCLINATION":52.9831,"RA_OF_ASC_NODE":169.1871,"ARG_OF_PERICENTER":235.6793,"MEAN_ANOMALY":124.394,"EPHEMERIS_TYPE":0,"NORAD_CAT_ID":62372,"ELEMENT_SET_NO":999,"REV_AT_EPOCH":9826,"BSTAR":0.00024828417,"MEAN_MOTION_DOT":0.00009879,"MEAN_MOTION_DDOT":0},{"OBJECT_NAME":"SPACEMOBILE-005 DEB","OBJECT_ID":"2024-163K","EPOCH":"2026-07-08T16:31:51.228768","CLASSIFICATION_TYPE":"U","MEAN_MOTION":15.3457271,"ECCENTRICITY":0.00059124,"INCLINATION":52.973,"RA_OF_ASC_NODE":182.9806,"ARG_OF_PERICENTER":205.8684,"MEAN_ANOMALY":154.2021,"EPHEMERIS_TYPE":0,"NORAD_CAT_ID":62373,"ELEMENT_SET_NO":999,"REV_AT_EPOCH":10142,"BSTAR":0.00017718177,"MEAN_MOTION_DOT":0.00005647,"MEAN_MOTION_DDOT":0},{"OBJECT_NAME":"SPACEMOBILE-006","OBJECT_ID":"2025-309A","EPOCH":"2026-07-08T04:03:30.389472","CLASSIFICATION_TYPE":"U","MEAN_MOTION":15.18644437,"ECCENTRICITY":0.00106305,"INCLINATION":52.9947,"RA_OF_ASC_NODE":235.5229,"ARG_OF_PERICENTER":192.2291,"MEAN_ANOMALY":167.8446,"EPHEMERIS_TYPE":0,"NORAD_CAT_ID":67232,"ELEMENT_SET_NO":999,"REV_AT_EPOCH":2978,"BSTAR":0.000024444343,"MEAN_MOTION_DOT":0.0000019,"MEAN_MOTION_DDOT":0},{"OBJECT_NAME":"SPACEMOBILE-008","OBJECT_ID":"2026-139A","EPOCH":"2026-07-08T09:56:22.106400","CLASSIFICATION_TYPE":"U","MEAN_MOTION":15.12795607,"ECCENTRICITY":0.00047044,"INCLINATION":52.9938,"RA_OF_ASC_NODE":166.1941,"ARG_OF_PERICENTER":40.1803,"MEAN_ANOMALY":319.9535,"EPHEMERIS_TYPE":0,"NORAD_CAT_ID":69589,"ELEMENT_SET_NO":999,"REV_AT_EPOCH":319,"BSTAR":0.000048130817,"MEAN_MOTION_DOT":0.00000553,"MEAN_MOTION_DDOT":0},{"OBJECT_NAME":"SPACEMOBILE-009","OBJECT_ID":"2026-139B","EPOCH":"2026-07-08T08:23:21.807744","CLASSIFICATION_TYPE":"U","MEAN_MOTION":15.12688799,"ECCENTRICITY":0.00049379,"INCLINATION":52.9928,"RA_OF_ASC_NODE":166.4987,"ARG_OF_PERICENTER":35.3944,"MEAN_ANOMALY":324.7374,"EPHEMERIS_TYPE":0,"NORAD_CAT_ID":69590,"ELEMENT_SET_NO":999,"REV_AT_EPOCH":318,"BSTAR":0.000046944963,"MEAN_MOTION_DOT":0.0000053,"MEAN_MOTION_DDOT":0},{"OBJECT_NAME":"SPACEMOBILE-010","OBJECT_ID":"2026-139C","EPOCH":"2026-07-08T10:01:53.865984","CLASSIFICATION_TYPE":"U","MEAN_MOTION":15.12519992,"ECCENTRICITY":0.000482,"INCLINATION":52.9933,"RA_OF_ASC_NODE":166.2159,"ARG_OF_PERICENTER":26.6938,"MEAN_ANOMALY":333.43,"EPHEMERIS_TYPE":0,"NORAD_CAT_ID":69591,"ELEMENT_SET_NO":999,"REV_AT_EPOCH":320,"BSTAR":0.000044398179,"MEAN_MOTION_DOT":0.00000482,"MEAN_MOTION_DDOT":0}]}
